[Satellite]
VERSION=1.1
NAME=SL-14 R/B
NICKNAME=SL-14 R/B
TLE1=1 20262U 89080C   18020.85199369  .00000099  00000-0  20303-4 0  9998
TLE2=2 20262  82.5937 276.6729 1238153 120.3349 252.6056 12.48882364289317
